              TDR Cartesian                         TDR Cartesian  
    -----------------------------------       --------------------------------
     X    =      -12117524.33                 X    =        -3693421.42
     Y    =       -8482428.76  feet           Y    =        -2585444.29  meter
     Z    =       16654916.91                 Z    =         5076418.67
     XDOT =      18336.344069                 XDOT =        5588.917672
     YDOT =     -14541.058533  feet/sec       YDOT =       -4432.114641  meter/sec
     ZDOT =       5919.623690                 ZDOT =        1804.301301
  
  
    The mean element set is posted at the UTC for which position is
    just north of the next ascending node relative to the above
    vector time
 
 
    TWO LINE MEAN ELEMENT SET
  
    ISS
    1 25544U 98067A   20248.55153175  .00016717  00000-0  10270-3 0  9027
    2 25544  51.6436 315.7204 0001586  84.1134 276.0197 15.49231543  4317
  
  
    Satellite: ISS
    Catalog Number: 25544
    Epoch time:      20248.55153175   =   yrday.fracday
    Element set:     902
    Inclination:       51.6436  deg
    RA of node:       315.7204  deg
    Eccentricity:     .0001586     
    Arg of perigee:    84.1134  deg
    Mean anomaly:     276.0197  deg
    Mean motion:   15.49231543  rev/day
    Decay rate:    1.67170E-04  rev/day^2
    Epoch rev:             431
    Checksum:              288
 
 
    Coasting Arc #4 (Orbit 445)
    ---------------------------------------
 
    Vector Time (GMT): 2020/249/11:15:00.000
    Vector Time (MET): N/A
    Weight (LBS)     : 922462.6
 
              M50 Cartesian                         M50 Keplerian  
    -----------------------------------       --------------------------------
     X    =        4031443.11                 A    =         6792053.00  meter
     Y    =        1683446.47  meter          E    =           .0005243
     Z    =        5196712.86                 I    =           51.32867
     XDOT =      -4162.754223                 Wp   =          113.62608
     YDOT =       6326.381389  meter/sec      RA   =          310.48975  deg
     ZDOT =       1176.925928                 TA   =          325.01315
                                              MA   =          325.04759
                                              Ha   =            229.116  n.mi
                                              Hp   =            221.804
 
              M50 Cartesian                         J2K Cartesian  
    -----------------------------------       --------------------------------
     X    =       13226519.39                 X    =         3987076.09
     Y    =        5523118.34  feet           Y    =         1728281.26  meter
     Z    =       17049582.86                 Z    =         5216188.09
     XDOT =     -13657.330129                 XDOT =       -4238.905154
     YDOT =      20755.844451  feet/sec       YDOT =        6279.404786  meter/sec
     ZDOT =       3861.305538                 ZDOT =        1156.519546
 
              TDR Cartesian                         TDR Cartesian  
    -----------------------------------       --------------------------------
     X    =       -9148068.98                 X    =        -2788331.42
     Y    =      -10894511.62  feet           Y    =        -3320647.14  meter
     Z    =       17139322.56                 Z    =         5224065.52
     XDOT =      20848.679103                 XDOT =        6354.677391
     YDOT =     -11564.971046  feet/sec       YDOT =       -3525.003175  meter/sec
     ZDOT =       3766.901239                 ZDOT =        1148.151498
  
  
    The mean element set is posted at the UTC for which position is
    just north of the next ascending node relative to the above
    vector time
 
 
    TWO LINE MEAN ELEMENT SET
  
    ISS
    1 25544U 98067A   20249.51912500  .00016717  00000-0  10270-3 0  9030
    2 25544  51.6437 310.9326 0001529  88.8021 271.3304 15.49239958  4465
  
  
    Satellite: ISS
    Catalog Number: 25544
    Epoch time:      20249.51912500   =   yrday.fracday
    Element set:     903
    Inclination:       51.6437  deg
    RA of node:       310.9326  deg
    Eccentricity:     .0001529     
    Arg of perigee:    88.8021  deg
    Mean anomaly:     271.3304  deg
    Mean motion:   15.49239958  rev/day
    Decay rate:    1.67170E-04  rev/day^2
    Epoch rev:             446
    Checksum:              299
 
 
    Coasting Arc #5 (Orbit 460)
    ---------------------------------------
 
    Vector Time (GMT): 2020/250/11:15:00.000
    Vector Time (MET): N/A
    Weight (LBS)     : 922462.6
 
              M50 Cartesian                         M50 Keplerian  
    -----------------------------------       --------------------------------
     X    =       -4118870.45                 A    =         6792126.52  meter
     Y    =       -1429175.27  meter          E    =           .0015809
     Z    =       -5222180.05                 I    =           51.30679
     XDOT =       3666.622940                 Wp   =           82.23938
     YDOT =      -6625.027429  meter/sec      RA   =          305.51972  deg
     ZDOT =      -1079.594055                 TA   =          177.34588
                                              MA   =          177.33748
                                              Ha   =            229.339  n.mi
                                              Hp   =            221.698
 
              M50 Cartesian                         J2K Cartesian  
    -----------------------------------       --------------------------------
     X    =      -13513354.50                 X    =        -4077216.47
     Y    =       -4688895.23  feet           Y    =        -1475002.86  meter
     Z    =      -17133136.66                 Z    =        -5242086.67
     XDOT =      12029.602820                 XDOT =        3745.677532
     YDOT =     -21735.654296  feet/sec       YDOT =       -6583.582672  meter/sec
     ZDOT =      -3541.975245                 ZDOT =       -1061.590585
 
              TDR Cartesian                         TDR Cartesian  
    -----------------------------------       --------------------------------
     X    =        9958683.78                 X    =         3035406.82
     Y    =       10112822.52  feet           Y    =         3082388.30  meter
     Z    =      -17224874.41                 Z    =        -5250141.72
     XDOT =     -19660.724786                 XDOT =       -5992.588915
     YDOT =      13474.091003  feet/sec       YDOT =        4106.902938  meter/sec
     ZDOT =      -3458.655947                 ZDOT =       -1054.198333
  
  
    The mean element set is posted at the UTC for which position is
    just north of the next ascending node relative to the above
    vector time
 
 
    TWO LINE MEAN ELEMENT SET
  
    ISS
    1 25544U 98067A   20250.48671710  .00016717  00000-0  10270-3 0  9044
    2 25544  51.6431 306.1449 0001562  88.4526 271.6803 15.49196025  4616
  
  
    Satellite: ISS
    Catalog Number: 25544
    Epoch time:      20250.48671710   =   yrday.fracday
    Element set:     904
    Inclination:       51.6431  deg
    RA of node:       306.1449  deg
    Eccentricity:     .0001562     
    Arg of perigee:    88.4526  deg
    Mean anomaly:     271.6803  deg
    Mean motion:   15.49196025  rev/day
    Decay rate:    1.67170E-04  rev/day^2
    Epoch rev:             461
    Checksum:              294
 
 
    Coasting Arc #6 (Orbit 476)
    ---------------------------------------
 
    Vector Time (GMT): 2020/251/11:15:00.000
    Vector Time (MET): N/A
    Weight (LBS)     : 922462.6
 
              M50 Cartesian                         M50 Keplerian  
    -----------------------------------       --------------------------------
     X    =        4177594.93                 A    =         6791925.52  meter
     Y    =        1159780.84  meter          E    =           .0005007
     Z    =        5224285.71                 I    =           51.28812
     XDOT =      -3159.055575                 Wp   =          111.21360
     YDOT =       6912.313710  meter/sec      RA   =          300.54851  deg
     ZDOT =        989.067511                 TA   =          329.25196
                                              MA   =          329.28128
                                              Ha   =            229.149  n.mi
                                              Hp   =            221.763
 
              M50 Cartesian                         J2K Cartesian  
    -----------------------------------       --------------------------------
     X    =       13706020.12                 X    =         4138938.74
     Y    =        3805055.24  feet           Y    =         1206281.83  meter
     Z    =       17140044.98                 Z    =         5244484.95
     XDOT =     -10364.355562                 XDOT =       -3240.920699
     YDOT =      22678.194587  feet/sec       YDOT =        6876.529202  meter/sec
     ZDOT =       3244.972150                 ZDOT =         973.522807
 
              TDR Cartesian                         TDR Cartesian  
    -----------------------------------       --------------------------------
     X    =      -10681264.57                 X    =        -3255649.44
     Y    =       -9221929.48  feet           Y    =        -2810844.11  meter
     Z    =       17233141.87                 Z    =         5252661.64
     XDOT =      18370.065164                 XDOT =        5599.195862
     YDOT =     -15332.101238  feet/sec       YDOT =       -4673.224457  meter/sec
     ZDOT =       3172.993995                 ZDOT =         967.128570
  
  
    The mean element set is posted at the UTC for which position is
    just north of the next ascending node relative to the above
    vector time
 
